IRIDIUM 119             
1 42959U 17061E   25152.81851663  .00000310  00000+0  10368-3 0  9991
2 42959  86.4000 184.2018 0002401  98.8431 261.3037 14.34221416400298
IRIDIUM 107             
1 42960U 17061F   25152.55845985  .00000564  00000+0  19416-3 0  9998
2 42960  86.4002 184.3293 0002820  95.3699 264.7819 14.34219339400264
IRIDIUM 132             
1 42961U 17061G   25152.84387388  .00000037  00000+0  62127-5 0  9993
2 42961  86.4000 184.1925 0002460  92.8934 267.2544 14.34217128400309
IRIDIUM 136             
1 42962U 17061H   25152.59651372 -.00000009  00000+0 -10350-4 0  9994
2 42962  86.4005 184.3002 0002348  97.6410 262.5053 14.34217403400286
IRIDIUM 139             
1 42963U 17061J   25152.60285438  .00000015  00000+0 -17836-5 0  9996
2 42963  86.4003 184.3536 0002626  93.6878 266.4618 14.34216382400296
IRIDIUM 125             
1 42964U 17061K   25152.59017108 -.00000005  00000+0 -86825-5 0  9996
2 42964  86.4009 184.4125 0002562 105.2854 254.8626 14.34217510400307
IRIDIUM 135             
1 43070U 17083A   25152.42475896  .00000009  00000+0 -37358-5 0  9993
2 43070  86.3957 121.2074 0002066  80.8132 279.3297 14.34217504389579
IRIDIUM 138             
1 43071U 17083B   25152.86874013  .00000014  00000+0 -19766-5 0  9995
2 43071  86.3947 120.6946 0001954  99.9068 260.2349 14.34217587389628
